start=new Date('2022-06-10T00:00:00.000Z').valueOf();
sats=[{"OBJECT_ID":"2021-125AL","BSTAR":"0.00003338800000","EPHEMERIS_TYPE":"0","ARG_OF_PERICENTER":"40.9540","LAUNCH_DATE":"2021-12-18","TLE_LINE2":"2 50190  53.2163 265.2534 0001903  40.9540 319.1595 15.08837510 29562","NORAD_CAT_ID":"50190","REF_FRAME":"TEME","INCLINATION":"53.2163","REV_AT_EPOCH":"2956","PERIOD":"95.438","OBJECT_TYPE":"PAYLOAD","ELEMENT_SET_NO":"999","GP_ID":"205758675","COUNTRY_CODE":"US","MEAN_MOTION":"15.08837510","RCS_SIZE":"LARGE","DECAY_DATE":null,"PERIAPSIS":"538.437","RA_OF_ASC_NODE":"265.2534","SEMIMAJOR_AXIS":"6917.888","MEAN_ANOMALY":"319.1595","APOAPSIS":"541.069","CENTER_NAME":"EARTH","OBJECT_NAME":"STARLINK-3268","SITE":"AFWTR","ECCENTRICITY":"0.00019030","EPOCH":"2022-06-09T14:06:10.361952","TIME_SYSTEM":"UTC","CLASSIFICATION_TYPE":"U","TLE_LINE1":"1 50190U 21125AL  22160.58761993  .00000243  00000-0  33388-4 0  9993","MEAN_ELEMENT_THEORY":"SGP4","FILE":"3488994","MEAN_MOTION_DOT":"0.00000243","MEAN_MOTION_DDOT":"0.0000000000000"},{"LAUNCH_DATE":"2021-12-18","ARG_OF_PERICENTER":"38.4055","EPHEMERIS_TYPE":"0","BSTAR":"-0.00015402000000","OBJECT_ID":"2021-125AM","RA_OF_ASC_NODE":"285.5277","PERIAPSIS":"538.119","DECAY_DATE":null,"RCS_SIZE":"LARGE","GP_ID":"205758191","MEAN_MOTION":"15.08824331","COUNTRY_CODE":"US","ELEMENT_SET_NO":"999","OBJECT_TYPE":"PAYLOAD","PERIOD":"95.439","REV_AT_EPOCH":"2667","INCLINATION":"53.2164","NORAD_CAT_ID":"50191","REF_FRAME":"TEME","TLE_LINE2":"2 50191  53.2164 285.5277 0002420  38.4055 321.7109 15.08824331 26677","TIME_SYSTEM":"UTC","EPOCH":"2022-06-09T12:44:00.790944","SITE":"AFWTR","ECCENTRICITY":"0.00024200","OBJECT_NAME":"STARLINK-3273","CENTER_NAME":"EARTH","APOAPSIS":"541.467","MEAN_ANOMALY":"321.7109","SEMIMAJOR_AXIS":"6917.928","MEAN_MOTION_DDOT":"0.0000000000000","MEAN_MOTION_DOT":"-0.00002738","MEAN_ELEMENT_THEORY":"SGP4","FILE":"3488995","TLE_LINE1":"1 50191U 21125AM  22160.53056471 -.00002738  00000-0 -15402-3 0  9996","CLASSIFICATION_TYPE":"U"},{"FILE":"3488994","MEAN_ELEMENT_THEORY":"SGP4","CLASSIFICATION_TYPE":"U","TLE_LINE1":"1 50192U 21125AN  22160.58392191 -.00001468  00000-0 -74179-4 0  9990","MEAN_MOTION_DDOT":"0.0000000000000","MEAN_MOTION_DOT":"-0.00001468","APOAPSIS":"540.970","MEAN_ANOMALY":"314.2606","OBJECT_NAME":"STARLINK-3259","CENTER_NAME":"EARTH","SEMIMAJOR_AXIS":"6917.898","TIME_SYSTEM":"UTC","SITE":"AFWTR","ECCENTRICITY":"0.00017450","EPOCH":"2022-06-09T14:00:50.853024","OBJECT_TYPE":"PAYLOAD","PERIOD":"95.438","ELEMENT_SET_NO":"999","NORAD_CAT_ID":"50192","REF_FRAME":"TEME","TLE_LINE2":"2 50192  53.2170 265.2745 0001745  45.8530 314.2606 15.08834260 26951","REV_AT_EPOCH":"2695","INCLINATION":"53.2170","DECAY_DATE":null,"PERIAPSIS":"538.556","RA_OF_ASC_NODE":"265.2745","RCS_SIZE":"LARGE","MEAN_MOTION":"15.08834260","GP_ID":"205758164","COUNTRY_CODE":"US","LAUNCH_DATE":"2021-12-18","ARG_OF_PERICENTER":"45.8530","EPHEMERIS_TYPE":"0","BSTAR":"-0.00007417900000","OBJECT_ID":"2021-125AN"},{"EPOCH":"2022-06-09T15:52:07.775904","ECCENTRICITY":"0.00016720","SITE":"AFWTR","TIME_SYSTEM":"UTC","SEMIMAJOR_AXIS":"6917.892","CENTER_NAME":"EARTH","OBJECT_NAME":"STARLINK-3261","APOAPSIS":"540.914","MEAN_ANOMALY":"321.3446","MEAN_MOTION_DOT":"-0.00002378","MEAN_MOTION_DDOT":"0.0000000000000","TLE_LINE1":"1 50193U 21125AP  22160.66120111 -.00002378  00000-0 -13136-3 0  9997","CLASSIFICATION_TYPE":"U","MEAN_ELEMENT_THEORY":"SGP4","FILE":"3489040","BSTAR":"-0.00013136000000","OBJECT_ID":"2021-125AP","EPHEMERIS_TYPE":"0","ARG_OF_PERICENTER":"38.7666","LAUNCH_DATE":"2021-12-18","GP_ID":"205783183","COUNTRY_CODE":"US","MEAN_MOTION":"15.08836134","RCS_SIZE":"LARGE","RA_OF_ASC_NODE":"264.9218","PERIAPSIS":"538.601","DECAY_DATE":null,"INCLINATION":"53.2164","REV_AT_EPOCH":"3010","TLE_LINE2":"2 50193  53.2164 264.9218 0001672  38.7666 321.3446 15.08836134 30101","REF_FRAME":"TEME","NORAD_CAT_ID":"50193","ELEMENT_SET_NO":"999","PERIOD":"95.438","OBJECT_TYPE":"PAYLOAD"},{"SITE":"AFWTR","ECCENTRICITY":"0.00018550","EPOCH":"2022-06-09T17:06:19.228320","TIME_SYSTEM":"UTC","SEMIMAJOR_AXIS":"6917.922","MEAN_ANOMALY":"309.5957","APOAPSIS":"541.070","OBJECT_NAME":"STARLINK-3269","CENTER_NAME":"EARTH","MEAN_MOTION_DOT":"-0.00001202","MEAN_MOTION_DDOT":"0.0000000000000","CLASSIFICATION_TYPE":"U","TLE_LINE1":"1 50194U 21125AQ  22160.71272255 -.00001202  00000-0 -57443-4 0  9996","FILE":"3489040","MEAN_ELEMENT_THEORY":"SGP4","ARG_OF_PERICENTER":"50.5199","EPHEMERIS_TYPE":"0","BSTAR":"-0.00005744300000","OBJECT_ID":"2021-125AQ","LAUNCH_DATE":"2021-12-18","RCS_SIZE":"LARGE","GP_ID":"205781931","MEAN_MOTION":"15.08826471","COUNTRY_CODE":"US","PERIAPSIS":"538.503","DECAY_DATE":null,"RA_OF_ASC_NODE":"264.6894","REF_FRAME":"TEME","NORAD_CAT_ID":"50194","TLE_LINE2":"2 50194  53.2159 264.6894 0001855  50.5199 309.5957 15.08826471 30118","INCLINATION":"53.2159","REV_AT_EPOCH":"3011","OBJECT_TYPE":"PAYLOAD","PERIOD":"95.438","ELEMENT_SET_NO":"999"},{"RA_OF_ASC_NODE":"265.8312","DECAY_DATE":null,"PERIAPSIS":"538.578","GP_ID":"205758670","MEAN_MOTION":"15.08832060","COUNTRY_CODE":"US","RCS_SIZE":"LARGE","ELEMENT_SET_NO":"999","PERIOD":"95.438","OBJECT_TYPE":"PAYLOAD","INCLINATION":"53.2163","REV_AT_EPOCH":"2954","TLE_LINE2":"2 50195  53.2163 265.8312 0001723  48.3807 311.7333 15.08832060 29546","REF_FRAME":"TEME","NORAD_CAT_ID":"50195","LAUNCH_DATE":"2021-12-18","BSTAR":"-0.00004476600000","OBJECT_ID":"2021-125AR","EPHEMERIS_TYPE":"0","ARG_OF_PERICENTER":"48.3807","MEAN_MOTION_DDOT":"0.0000000000000","MEAN_MOTION_DOT":"-0.00001000","MEAN_ELEMENT_THEORY":"SGP4","FILE":"3488994","TLE_LINE1":"1 50195U 21125AR  22160.45879462 -.00001000  00000-0 -44766-4 0  9991","CLASSIFICATION_TYPE":"U","TIME_SYSTEM":"UTC","EPOCH":"2022-06-09T11:00:39.855168","SITE":"AFWTR","ECCENTRICITY":"0.00017230","CENTER_NAME":"EARTH","OBJECT_NAME":"STARLINK-3266","APOAPSIS":"540.962","MEAN_ANOMALY":"311.7333","SEMIMAJOR_AXIS":"6917.905"},{"ARG_OF_PERICENTER":"40.3229","BSTAR":"0.00007532600000","EPHEMERIS_TYPE":"0","OBJECT_ID":"2021-125AS","LAUNCH_DATE":"2021-12-18","REF_FRAME":"TEME","NORAD_CAT_ID":"50196","TLE_LINE2":"2 50196  53.2188 264.7242 0002349  40.3229 319.7937 15.08831180 30068","INCLINATION":"53.2188","REV_AT_EPOCH":"3006","OBJECT_TYPE":"PAYLOAD","PERIOD":"95.438","ELEMENT_SET_NO":"999","RCS_SIZE":"LARGE","MEAN_MOTION":"15.08831180","GP_ID":"205782933","COUNTRY_CODE":"US","PERIAPSIS":"538.147","DECAY_DATE":null,"RA_OF_ASC_NODE":"264.7242","SEMIMAJOR_AXIS":"6917.907","MEAN_ANOMALY":"319.7937","APOAPSIS":"541.397","OBJECT_NAME":"STARLINK-3263","CENTER_NAME":"EARTH","SITE":"AFWTR","ECCENTRICITY":"0.00023490","EPOCH":"2022-06-09T16:55:43.254336","TIME_SYSTEM":"UTC","CLASSIFICATION_TYPE":"U","TLE_LINE1":"1 50196U 21125AS  22160.70536174  .00000910  00000-0  75326-4 0  9993","MEAN_ELEMENT_THEORY":"SGP4","FILE":"3489040","MEAN_MOTION_DOT":"0.00000910","MEAN_MOTION_DDOT":"0.0000000000000"},{"LAUNCH_DATE":"2021-12-18","BSTAR":"-0.00004208500000","EPHEMERIS_TYPE":"0","OBJECT_ID":"2021-125AT","ARG_OF_PERICENTER":"49.9841","PERIOD":"95.438","OBJECT_TYPE":"PAYLOAD","ELEMENT_SET_NO":"999","TLE_LINE2":"2 50197  53.2180 264.7069 0001827  49.9841 310.1311 15.08836189 30114","REF_FRAME":"TEME","NORAD_CAT_ID":"50197","REV_AT_EPOCH":"3011","INCLINATION":"53.2180","PERIAPSIS":"538.493","DECAY_DATE":null,"RA_OF_ASC_NODE":"264.7069","GP_ID":"205783684","COUNTRY_CODE":"US","MEAN_MOTION":"15.08836189","RCS_SIZE":"LARGE","APOAPSIS":"541.021","MEAN_ANOMALY":"310.1311","CENTER_NAME":"EARTH","OBJECT_NAME":"STARLINK-3267","SEMIMAJOR_AXIS":"6917.892","TIME_SYSTEM":"UTC","ECCENTRICITY":"0.00018270","SITE":"AFWTR","EPOCH":"2022-06-09T17:01:00.172128","MEAN_ELEMENT_THEORY":"SGP4","FILE":"3489040","CLASSIFICATION_TYPE":"U","TLE_LINE1":"1 50197U 21125AT  22160.70902977 -.00000958  00000-0 -42085-4 0  9992","MEAN_MOTION_DDOT":"0.0000000000000","MEAN_MOTION_DOT":"-0.00000958"},{"SEMIMAJOR_AXIS":"6917.920","MEAN_ANOMALY":"315.3024","APOAPSIS":"541.069","CENTER_NAME":"EARTH","OBJECT_NAME":"STARLINK-3264","SITE":"AFWTR","ECCENTRICITY":"0.00018560","EPOCH":"2022-06-09T16:39:49.451040","TIME_SYSTEM":"UTC","CLASSIFICATION_TYPE":"U","TLE_LINE1":"1 50198U 21125AU  22160.69432235 -.00000718  00000-0 -27037-4 0  9990","MEAN_ELEMENT_THEORY":"SGP4","FILE":"3489040","MEAN_MOTION_DOT":"-0.00000718","MEAN_MOTION_DDOT":"0.0000000000000","BSTAR":"-0.00002703700000","EPHEMERIS_TYPE":"0","OBJECT_ID":"2021-125AU","ARG_OF_PERICENTER":"44.8118","LAUNCH_DATE":"2021-12-18","TLE_LINE2":"2 50198  53.2208 264.7824 0001856  44.8118 315.3024 15.08827065 30063","REF_FRAME":"TEME","NORAD_CAT_ID":"50198","REV_AT_EPOCH":"3006","INCLINATION":"53.2208","PERIOD":"95.438","OBJECT_TYPE":"PAYLOAD","ELEMENT_SET_NO":"999","GP_ID":"205782432","COUNTRY_CODE":"US","MEAN_MOTION":"15.08827065","RCS_SIZE":"LARGE","DECAY_DATE":null,"PERIAPSIS":"538.501","RA_OF_ASC_NODE":"264.7824"},{"LAUNCH_DATE":"2021-12-18","ARG_OF_PERICENTER":"37.5918","BSTAR":"0.00010735000000","OBJECT_ID":"2021-125AV","EPHEMERIS_TYPE":"0","OBJECT_TYPE":"PAYLOAD","PERIOD":"95.438","ELEMENT_SET_NO":"999","REF_FRAME":"TEME","NORAD_CAT_ID":"50199","TLE_LINE2":"2 50199  53.2158 264.8556 0002216  37.5918 322.5229 15.08830675 30056","REV_AT_EPOCH":"3005","INCLINATION":"53.2158","PERIAPSIS":"538.241","DECAY_DATE":null,"RA_OF_ASC_NODE":"264.8556","RCS_SIZE":"LARGE","GP_ID":"205782682","MEAN_MOTION":"15.08830675","COUNTRY_CODE":"US","MEAN_ANOMALY":"322.5229","APOAPSIS":"541.307","OBJECT_NAME":"STARLINK-3270","CENTER_NAME":"EARTH","SEMIMAJOR_AXIS":"6917.909","TIME_SYSTEM":"UTC","ECCENTRICITY":"0.00022160","SITE":"AFWTR","EPOCH":"2022-06-09T16:13:20.021952","FILE":"3489040","MEAN_ELEMENT_THEORY":"SGP4","CLASSIFICATION_TYPE":"U","TLE_LINE1":"1 50199U 21125AV  22160.67592618  .00001420  00000-0  10735-3 0  9996","MEAN_MOTION_DDOT":"0.0000000000000","MEAN_MOTION_DOT":"0.00001420"}];
